{
  "type": "FeatureCollection",
  "features": [
    {
      "type": "Feature",
      "properties": {
        "norad_id": 66518,
        "name": "STARLINK-35962",
        "group": "last-30-days",
        "lat": -40.30734063329548,
        "lon": -11.316787729525212,
        "alt_km": 416.8080916926119,
        "timestamp": "2025-12-12T16:50:31.910430+00:00",
        "meta_object_name": "STARLINK-35962",
        "meta_object_id": "2025-265C",
        "meta_epoch": "2025-12-12T06:00:00.999648",
        "meta_mean_motion": 15.5065489,
        "meta_eccentricity": 0.0002289,
        "meta_inclination": 42.9999,
        "meta_ra_of_asc_node": 56.8767,
        "meta_arg_of_pericenter": 266.9099,
        "meta_mean_anomaly": 16.7373,
        "meta_ephemeris_type": 0,
        "meta_classification_type": "U",
        "meta_norad_cat_id": 66518,
        "meta_element_set_no": 999,
        "meta_rev_at_epoch": 491,
        "meta_bstar": -0.0014257338,
        "meta_mean_motion_dot": -0.0008333,
        "meta_mean_motion_ddot": 0,
        "tle_line1": "1 66518U 25265C   25346.25001157 -.00083330  00000+0 -14257-2 0  9996",
        "tle_line2": "2 66518  42.9999  56.8767 0002289 266.9099  16.7373 15.50654890  4915"
      },
      "geometry": {
        "type": "Point",
        "coordinates": [
          -11.316787729525212,
          -40.30734063329548
        ]
      }
    },
    {
      "type": "Feature",
      "properties": {
        "norad_id": 66519,
        "name": "STARLINK-35931",
        "group": "last-30-days",
        "lat": -39.75583451699474,
        "lon": -8.985013545578886,
        "alt_km": 417.7678208377147,
        "timestamp": "2025-12-12T16:50:31.910440+00:00",
        "meta_object_name": "STARLINK-35931",
        "meta_object_id": "2025-265D",
        "meta_epoch": "2025-12-12T06:00:00.999648",
        "meta_mean_motion": 15.50728592,
        "meta_eccentricity": 0.00014077,
        "meta_inclination": 43.0003,
        "meta_ra_of_asc_node": 56.8717,
        "meta_arg_of_pericenter": 256.9334,
        "meta_mean_anomaly": 28.6261,
        "meta_ephemeris_type": 0,
        "meta_classification_type": "U",
        "meta_norad_cat_id": 66519,
        "meta_element_set_no": 999,
        "meta_rev_at_epoch": 491,
        "meta_bstar": -0.0050645997,
        "meta_mean_motion_dot": -0.00288317,
        "meta_mean_motion_ddot": 0,
        "tle_line1": "1 66519U 25265D   25346.25001157 -.00288317  00000+0 -50646-2 0  9991",
        "tle_line2": "2 66519  43.0003  56.8717 0001407 256.9334  28.6261 15.50728592  4910"
      },
      "geometry": {
        "type": "Point",
        "coordinates": [
          -8.985013545578886,
          -39.75583451699474
        ]
      }
    },
    {
      "type": "Feature",
      "properties": {
        "norad_id": 66520,
        "name": "STARLINK-35952",
        "group": "last-30-days",
        "lat": -41.2850455747463,
        "lon": -16.193111746275438,
        "alt_km": 430.0116505310307,
        "timestamp": "2025-12-12T16:50:31.910450+00:00",
        "meta_object_name": "STARLINK-35952",
        "meta_object_id": "2025-265E",
        "meta_epoch": "2025-12-12T06:00:00.999648",
        "meta_mean_motion": 15.48262565,
        "meta_eccentricity": 0.00014192,
        "meta_inclination": 43.0003,
        "meta_ra_of_asc_node": 56.8719,
        "meta_arg_of_pericenter": 256.1381,
        "meta_mean_anomaly": 29.1894,
        "meta_ephemeris_type": 0,
        "meta_classification_type": "U",
        "meta_norad_cat_id": 66520,
        "meta_element_set_no": 999,
        "meta_rev_at_epoch": 491,
        "meta_bstar": -0.043013015,
        "meta_mean_motion_dot": -0.02067235,
        "meta_mean_motion_ddot": 0,
        "tle_line1": "1 66520U 25265E   25346.25001157 -.02067235  00000+0 -43013-1 0  9998",
        "tle_line2": "2 66520  43.0003  56.8719 0001419 256.1381  29.1894 15.48262565  4919"
      },
      "geometry": {
        "type": "Point",
        "coordinates": [
          -16.193111746275438,
          -41.2850455747463
        ]
      }
    },
    {
      "type": "Feature",
      "properties": {
        "norad_id": 66521,
        "name": "STARLINK-35915",
        "group": "last-30-days",
        "lat": -38.50922704713588,
        "lon": -4.417493555606831,
        "alt_km": 417.26549292572963,
        "timestamp": "2025-12-12T16:50:31.910460+00:00",
        "meta_object_name": "STARLINK-35915",
        "meta_object_id": "2025-265F",
        "meta_epoch": "2025-12-12T06:00:00.999648",
        "meta_mean_motion": 15.50544805,
        "meta_eccentricity": 0.00016751,
        "meta_inclination": 43.0003,
        "meta_ra_of_asc_node": 56.8621,
        "meta_arg_of_pericenter": 259.5909,
        "meta_mean_anomaly": 29.7942,
        "meta_ephemeris_type": 0,
        "meta_classification_type": "U",
        "meta_norad_cat_id": 66521,
        "meta_element_set_no": 999,
        "meta_rev_at_epoch": 491,
        "meta_bstar": 0.00048970691,
        "meta_mean_motion_dot": 0.00028457,
        "meta_mean_motion_ddot": 0,
        "tle_line1": "1 66521U 25265F   25346.25001157  .00028457  00000+0  48971-3 0  9998",
        "tle_line2": "2 66521  43.0003  56.8621 0001675 259.5909  29.7942 15.50544805  4912"
      },
      "geometry": {
        "type": "Point",
        "coordinates": [
          -4.417493555606831,
          -38.50922704713588
        ]
      }
    },
    {
      "type": "Feature",
      "properties": {
        "norad_id": 66522,
        "name": "STARLINK-35946",
        "group": "last-30-days",
        "lat": -37.82737114746144,
        "lon": -2.217648866499965,
        "alt_km": 417.00542851349564,
        "timestamp": "2025-12-12T16:50:31.910472+00:00",
        "meta_object_name": "STARLINK-35946",
        "meta_object_id": "2025-265G",
        "meta_epoch": "2025-12-12T06:00:00.999648",
        "meta_mean_motion": 15.50582792,
        "meta_eccentricity": 0.00018548,
        "meta_inclination": 43.0001,
        "meta_ra_of_asc_node": 56.8572,
        "meta_arg_of_pericenter": 264.0677,
        "meta_mean_anomaly": 27.1251,
        "meta_ephemeris_type": 0,
        "meta_classification_type": "U",
        "meta_norad_cat_id": 66522,
        "meta_element_set_no": 999,
        "meta_rev_at_epoch": 491,
        "meta_bstar": 0.00038368141,
        "meta_mean_motion_dot": 0.00022234,
        "meta_mean_motion_ddot": 0,
        "tle_line1": "1 66522U 25265G   25346.25001157  .00022234  00000+0  38368-3 0  9995",
        "tle_line2": "2 66522  43.0001  56.8572 0001854 264.0677  27.1251 15.50582792  4910"
      },
      "geometry": {
        "type": "Point",
        "coordinates": [
          -2.217648866499965,
          -37.82737114746144
        ]
      }
    },
    {
      "type": "Feature",
      "properties": {
        "norad_id": 66523,
        "name": "STARLINK-35969",
        "group": "last-30-days",
        "lat": -37.05884709512552,
        "lon": 0.07599481706122384,
        "alt_km": 415.2485691489137,
        "timestamp": "2025-12-12T16:50:31.910483+00:00",
        "meta_object_name": "STARLINK-35969",
        "meta_object_id": "2025-265H",
        "meta_epoch": "2025-12-12T06:00:00.999648",
        "meta_mean_motion": 15.50547338,
        "meta_eccentricity": 0.0004353,
        "meta_inclination": 43.0005,
        "meta_ra_of_asc_node": 56.8521,
        "meta_arg_of_pericenter": 285.3164,
        "meta_mean_anomaly": 7.9158,
        "meta_ephemeris_type": 0,
        "meta_classification_type": "U",
        "meta_norad_cat_id": 66523,
        "meta_element_set_no": 999,
        "meta_rev_at_epoch": 491,
        "meta_bstar": 0.00046091788,
        "meta_mean_motion_dot": 0.00026767,
        "meta_mean_motion_ddot": 0,
        "tle_line1": "1 66523U 25265H   25346.25001157  .00026767  00000+0  46092-3 0  9994",
        "tle_line2": "2 66523  43.0005  56.8521 0004353 285.3164   7.9158 15.50547338  4912"
      },
      "geometry": {
        "type": "Point",
        "coordinates": [
          0.07599481706122384,
          -37.05884709512552
        ]
      }
    },
    {
      "type": "Feature",
      "properties": {
        "norad_id": 66524,
        "name": "STARLINK-35687",
        "group": "last-30-days",
        "lat": -42.97086305495429,
        "lon": -34.24442341044455,
        "alt_km": 442.3070768940979,
        "timestamp": "2025-12-12T16:50:31.910493+00:00",
        "meta_object_name": "STARLINK-35687",
        "meta_object_id": "2025-265J",
        "meta_epoch": "2025-12-12T06:00:00.999648",
        "meta_mean_motion": 15.44128612,
        "meta_eccentricity": 0.00010671,
        "meta_inclination": 43.0007,
        "meta_ra_of_asc_node": 56.8883,
        "meta_arg_of_pericenter": 266.2124,
        "meta_mean_anomaly": 12.3328,
        "meta_ephemeris_type": 0,
        "meta_classification_type": "U",
        "meta_norad_cat_id": 66524,
        "meta_element_set_no": 999,
        "meta_rev_at_epoch": 491,
        "meta_bstar": -0.048953541,
        "meta_mean_motion_dot": -0.02040358,
        "meta_mean_motion_ddot": 0,
        "tle_line1": "1 66524U 25265J   25346.25001157 -.02040358  00000+0 -48954-1 0  9998",
        "tle_line2": "2 66524  43.0007  56.8883 0001067 266.2124  12.3328 15.44128612  4911"
      },
      "geometry": {
        "type": "Point",
        "coordinates": [
          -34.24442341044455,
          -42.97086305495429
        ]
      }
    }
  ]
}